{
    "links": {
        "self": "http://www.neowsapp.com/rest/v1/neo/3841632?api_key=iIulBulltgU6a56xZRHN4H3l9WmuAYTsLGpBGhQ2"
    },
    "id": "3841632",
    "neo_reference_id": "3841632",
    "name": "(2019 HZ3)",
    "designation": "2019 HZ3",
    "nasa_jpl_url": "http://ssd.jpl.nasa.gov/sbdb.cgi?sstr=3841632",
    "absolute_magnitude_h": 25.1,
    "estimated_diameter": {
        "kilometers": {
            "estimated_diameter_min": 0.0253837029,
            "estimated_diameter_max": 0.0567596853
        },
        "meters": {
            "estimated_diameter_min": 25.3837029364,
            "estimated_diameter_max": 56.7596852866
        },
        "miles": {
            "estimated_diameter_min": 0.0157726969,
            "estimated_diameter_max": 0.0352688224
        },
        "feet": {
            "estimated_diameter_min": 83.279867942,
            "estimated_diameter_max": 186.2194458756
        }
    },
    "is_potentially_hazardous_asteroid": false,
    "close_approach_data": [
        {
            "close_approach_date": "2019-04-28",
            "close_approach_date_full": "2019-Apr-28 20:04",
            "epoch_date_close_approach": 1556481840000,
            "relative_velocity": {
                "kilometers_per_second": "9.2457416944",
                "kilometers_per_hour": "33284.6700998309",
                "miles_per_hour": "20681.7995961977"
            },
            "miss_distance": {
                "astronomical": "0.0682639421",
                "lunar": "26.5546734769",
                "kilometers": "10212140.335963327",
                "miles": "6345529.7586428326"
            },
            "orbiting_body": "Earth"
        },
        {
            "close_approach_date": "2021-04-18",
            "close_approach_date_full": "2021-Apr-18 08:50",
            "epoch_date_close_approach": 1618735800000,
            "relative_velocity": {
                "kilometers_per_second": "12.8746484387",
                "kilometers_per_hour": "46348.7343793812",
                "miles_per_hour": "28799.3010925661"
            },
            "miss_distance": {
                "astronomical": "0.1708088227",
                "lunar": "66.4446320303",
                "kilometers": "25552636.053127649",
                "miles": "15877671.7859895962"
            },
            "orbiting_body": "Earth"
        }
    ],
    "orbital_data": {
        "orbit_id": "1",
        "orbit_determination_date": "2019-04-29 11:12:04",
        "first_observation_date": "2019-04-03",
        "last_observation_date": "2019-04-29",
        "data_arc_in_days": 26,
        "observations_used": 26,
        "orbit_uncertainty": "8",
        "minimum_orbit_intersection": ".0595351",
        "jupiter_tisserand_invariant": "4.308",
        "epoch_osculation": "2458590.5",
        "eccentricity": ".3874626554543409",
        "semi_major_axis": "1.577684263452548",
        "inclination": "6.019815653503992",
        "ascending_node_longitude": "191.2471026364047",
        "orbital_period": "723.8166473877494",
        "perihelion_distance": ".9663905292666976",
        "perihelion_argument": "69.99407629629036",
        "aphelion_distance": "2.188977997638398",
        "perihelion_time": "2458637.875025591128",
        "mean_anomaly": "336.4373902225688",
        "mean_motion": ".4973635261073894",
        "equinox": "J2000",
        "orbit_class": {
            "orbit_class_type": "APO",
            "orbit_class_description": "Near-Earth asteroid orbits which cross the Earth’s orbit similar to that of 1862 Apollo",
            "orbit_class_range": "a (semi-major axis) > 1.0 AU; q (perihelion) < 1.017 AU"
        }
    },
    "is_sentry_object": false
}